ONEWEB-0520             
1 54138U 22138AB  25087.85782376  .00000009  00000+0 -10681-4 0  9994
2 54138  87.9233  33.4625 0002177  71.7957 288.3413 13.19724965118951
ONEWEB-0521             
1 54139U 22138AC  25087.36027087 -.00000010  00000+0 -56154-4 0  9990
2 54139  87.9228  33.5500 0001920  88.7826 271.3527 13.19724086117969
ONEWEB-0522             
1 54140U 22138AD  25087.87045322  .00000140  00000+0  31786-3 0  9995
2 54140  87.9227  33.4501 0001897  75.9069 284.2275 13.19728241118949
ONEWEB-0523             
1 54141U 22138AE  25087.27751163  .00000097  00000+0  20757-3 0  9994
2 54141  87.9338   3.1978 0001238 102.5057 257.6215 13.20774444120442
ONEWEB-0524             
1 54142U 22138AF  25087.49373203  .00000089  00000+0  18710-3 0  9991
2 54142  87.9337   3.1569 0001112  53.9839 306.1397 13.20775064120479
ONEWEB-0525             
1 54143U 22138AG  25087.35868905  .00000061  00000+0  11971-3 0  9997
2 54143  87.9232  33.5683 0002241  75.5799 284.5582 13.19726371118025
ONEWEB-0526             
1 54144U 22138AH  25087.39187077  .00000103  00000+0  22533-3 0  9999
2 54144  87.9229  33.5519 0002094  76.3855 283.7510 13.19727044118006
ONEWEB-0529             
1 54145U 22138AJ  25087.84990932  .00000097  00000+0  20883-3 0  9990
2 54145  87.9239  33.4967 0002153  73.8183 286.3186 13.19723735118951
